{
    "links": {
        "self": "http://www.neowsapp.com/rest/v1/neo/3673869?api_key=iIulBulltgU6a56xZRHN4H3l9WmuAYTsLGpBGhQ2"
    },
    "id": "3673869",
    "neo_reference_id": "3673869",
    "name": "(2014 MS5)",
    "designation": "2014 MS5",
    "nasa_jpl_url": "http://ssd.jpl.nasa.gov/sbdb.cgi?sstr=3673869",
    "absolute_magnitude_h": 22.7,
    "estimated_diameter": {
        "kilometers": {
            "estimated_diameter_min": 0.0766575574,
            "estimated_diameter_max": 0.1714115092
        },
        "meters": {
            "estimated_diameter_min": 76.6575573531,
            "estimated_diameter_max": 171.4115092306
        },
        "miles": {
            "estimated_diameter_min": 0.0476327831,
            "estimated_diameter_max": 0.1065101409
        },
        "feet": {
            "estimated_diameter_min": 251.5011804664,
            "estimated_diameter_max": 562.3737359442
        }
    },
    "is_potentially_hazardous_asteroid": false,
    "close_approach_data": [
        {
            "close_approach_date": "2014-07-13",
            "close_approach_date_full": "2014-Jul-13 06:18",
            "epoch_date_close_approach": 1405232280000,
            "relative_velocity": {
                "kilometers_per_second": "11.8324548217",
                "kilometers_per_hour": "42596.8373580732",
                "miles_per_hour": "26468.0181906317"
            },
            "miss_distance": {
                "astronomical": "0.0447980739",
                "lunar": "17.4264507471",
                "kilometers": "6701696.435542593",
                "miles": "4164241.0666220634"
            },
            "orbiting_body": "Earth"
        },
        {
            "close_approach_date": "2057-06-21",
            "close_approach_date_full": "2057-Jun-21 06:08",
            "epoch_date_close_approach": 2760329280000,
            "relative_velocity": {
                "kilometers_per_second": "19.8141037123",
                "kilometers_per_hour": "71330.7733644503",
                "miles_per_hour": "44322.1685941497"
            },
            "miss_distance": {
                "astronomical": "0.2325736194",
                "lunar": "90.4711379466",
                "kilometers": "34792518.080430678",
                "miles": "21619068.2456642364"
            },
            "orbiting_body": "Earth"
        }
    ],
    "orbital_data": {
        "orbit_id": "7",
        "orbit_determination_date": "2017-08-10 06:18:11",
        "first_observation_date": "2014-06-20",
        "last_observation_date": "2014-07-10",
        "data_arc_in_days": 20,
        "observations_used": 36,
        "orbit_uncertainty": "7",
        "minimum_orbit_intersection": ".0224494",
        "jupiter_tisserand_invariant": "3.705",
        "epoch_osculation": "2459000.5",
        "eccentricity": ".558756207452421",
        "semi_major_axis": "1.930565049036779",
        "inclination": "2.503815321873691",
        "ascending_node_longitude": "75.95290185887806",
        "orbital_period": "979.7721399986413",
        "perihelion_distance": ".8518498439967913",
        "perihelion_argument": "267.2040625783625",
        "aphelion_distance": "3.009280254076768",
        "perihelion_time": "2458850.696172404036",
        "mean_anomaly": "55.04277549127051",
        "mean_motion": ".3674323705514828",
        "equinox": "J2000",
        "orbit_class": {
            "orbit_class_type": "APO",
            "orbit_class_description": "Near-Earth asteroid orbits which cross the Earth’s orbit similar to that of 1862 Apollo",
            "orbit_class_range": "a (semi-major axis) > 1.0 AU; q (perihelion) < 1.017 AU"
        }
    },
    "is_sentry_object": false
}